{
  "schema": "int-telemetry-real-tle-snapshot/v1",
  "source": "celestrak",
  "group": "STARLINK",
  "format": "celestrak-gp-json",
  "source_url": "https://celestrak.org/NORAD/elements/gp.php?NAME=STARLINK&FORMAT=JSON",
  "downloaded_at": "2026-07-01T09:45:20.184Z",
  "generated_at": "2026-07-01T09:45:20.328Z",
  "fingerprint": "b8e2cd48",
  "shell_id": "starlink-real-53.2deg-545km",
  "catalog_count": 10658,
  "shell_count": 1056,
  "selected_count": 64,
  "mean_altitude_km": 544.89,
  "mean_inclination_deg": 53.1617,
  "mean_mean_motion_rev_per_day": 15.09493346,
  "layout": {
    "planes": 8,
    "satellites_per_plane": 8,
    "selection_strategy": "target-shell-raan-clusters-even-slot-sampling",
    "raan_cluster_threshold_deg": 1.5,
    "target_inclination_deg": 53,
    "target_altitude_km": 550,
    "selected_shell_key": "53.0deg-550km",
    "target_shell_distance": 21.03
  },
  "satellites": [
    {
      "satellite_id": "P03-S03",
      "norad_id": 53980,
      "satellite_name": "STARLINK-5133",
      "cospar_id": "2022-125S",
      "shell_id": "starlink-real-53.2deg-545km",
      "plane_id": 2,
      "slot_id": 2,
      "epoch": "2026-06-25T23:23:46.282272",
      "inclination": 53.1596,
      "raan": 92.58659999999998,
      "eccentricity": 0.0001254,
      "argument_of_perigee": 84.54059999999998,
      "mean_anomaly": 275.5727999999999,
      "mean_motion": 15.0883906,
      "bstar": 0.000049053,
      "status": "active",
      "raw_omm": {
        "OBJECT_NAME": "STARLINK-5133",
        "OBJECT_ID": "2022-125S",
        "EPOCH": "2026-06-25T23:23:46.282272",
        "MEAN_MOTION": 15.0883906,
        "ECCENTRICITY": 0.0001254,
        "INCLINATION": 53.1596,
        "RA_OF_ASC_NODE": 92.5866,
        "ARG_OF_PERICENTER": 84.5406,
        "MEAN_ANOMALY": 275.5728,
        "EPHEMERIS_TYPE": 0,
        "CLASSIFICATION_TYPE": "U",
        "NORAD_CAT_ID": 53980,
        "ELEMENT_SET_NO": 999,
        "REV_AT_EPOCH": 20574,
        "BSTAR": 0.000049053,
        "MEAN_MOTION_DOT": 0.00000493,
        "MEAN_MOTION_DDOT": 0
      },
      "source": "celestrak",
      "source_url": "https://celestrak.org/NORAD/elements/gp.php?NAME=STARLINK&FORMAT=JSON",
      "catalog_fingerprint": "b8e2cd48"
    },
    {
      "satellite_id": "P03-S04",
      "norad_id": 49411,
      "satellite_name": "STARLINK-3162",
      "cospar_id": "2021-104D",
      "shell_id": "starlink-real-53.2deg-545km",
      "plane_id": 2,
      "slot_id": 3,
      "epoch": "2026-06-26T01:57:30.663360",
      "inclination": 53.1605,
      "raan": 92.38330000000002,
      "eccentricity": 0.0001322,
      "argument_of_perigee": 94.01679999999999,
      "mean_anomaly": 266.0974,
      "mean_motion": 15.08829743,
      "bstar": 0.000040691,
      "status": "active",
      "raw_omm": {
        "OBJECT_NAME": "STARLINK-3162",
        "OBJECT_ID": "2021-104D",
        "EPOCH": "2026-06-26T01:57:30.663360",
        "MEAN_MOTION": 15.08829743,
        "ECCENTRICITY": 0.0001322,
        "INCLINATION": 53.1605,
        "RA_OF_ASC_NODE": 92.3833,
        "ARG_OF_PERICENTER": 94.0168,
        "MEAN_ANOMALY": 266.0974,
        "EPHEMERIS_TYPE": 0,
        "CLASSIFICATION_TYPE": "U",
        "NORAD_CAT_ID": 49411,
        "ELEMENT_SET_NO": 999,
        "REV_AT_EPOCH": 25513,
        "BSTAR": 0.000040691,
        "MEAN_MOTION_DOT": 0.0000036,
        "MEAN_MOTION_DDOT": 0
      },
      "source": "celestrak",
      "source_url": "https://celestrak.org/NORAD/elements/gp.php?NAME=STARLINK&FORMAT=JSON",
      "catalog_fingerprint": "b8e2cd48"
    },
    {
      "satellite_id": "P03-S05",
      "norad_id": 53978,
      "satellite_name": "STARLINK-5148",
      "cospar_id": "2022-125Q",
      "shell_id": "starlink-real-53.2deg-545km",
      "plane_id": 2,
      "slot_id": 4,
      "epoch": "2026-06-25T23:50:19.143168",
      "inclination": 53.1612,
      "raan": 92.6979,
      "eccentricity": 0.0001375,
      "argument_of_perigee": 94.48810000000003,
      "mean_anomaly": 265.6268,
      "mean_motion": 15.08823484,
      "bstar": 0.000061568,
      "status": "active",
      "raw_omm": {
        "OBJECT_NAME": "STARLINK-5148",
        "OBJECT_ID": "2022-125Q",
        "EPOCH": "2026-06-25T23:50:19.143168",
        "MEAN_MOTION": 15.08823484,
        "ECCENTRICITY": 0.0001375,
        "INCLINATION": 53.1612,
        "RA_OF_ASC_NODE": 92.6979,
        "ARG_OF_PERICENTER": 94.4881,
        "MEAN_ANOMALY": 265.6268,
        "EPHEMERIS_TYPE": 0,
        "CLASSIFICATION_TYPE": "U",
        "NORAD_CAT_ID": 53978,
        "ELEMENT_SET_NO": 999,
        "REV_AT_EPOCH": 20574,
        "BSTAR": 0.000061568,
        "MEAN_MOTION_DOT": 0.00000692,
        "MEAN_MOTION_DDOT": 0
      },
      "source": "celestrak",
      "source_url": "https://celestrak.org/NORAD/elements/gp.php?NAME=STARLINK&FORMAT=JSON",
      "catalog_fingerprint": "b8e2cd48"
    },
    {
      "satellite_id": "P03-S06",
      "norad_id": 53979,
      "satellite_name": "STARLINK-5123",
      "cospar_id": "2022-125R",
      "shell_id": "starlink-real-53.2deg-545km",
      "plane_id": 2,
      "slot_id": 5,
      "epoch": "2026-06-26T00:00:55.168128",
      "inclination": 53.1614,
      "raan": 92.74379999999996,
      "eccentricity": 0.0001472,
      "argument_of_perigee": 101.85309999999998,
      "mean_anomaly": 258.26250000000005,
      "mean_motion": 15.08839068,
      "bstar": 0.000016128,
      "status": "active",
      "raw_omm": {
        "OBJECT_NAME": "STARLINK-5123",
        "OBJECT_ID": "2022-125R",
        "EPOCH": "2026-06-26T00:00:55.168128",
        "MEAN_MOTION": 15.08839068,
        "ECCENTRICITY": 0.0001472,
        "INCLINATION": 53.1614,
        "RA_OF_ASC_NODE": 92.7438,
        "ARG_OF_PERICENTER": 101.8531,
        "MEAN_ANOMALY": 258.2625,
        "EPHEMERIS_TYPE": 0,
        "CLASSIFICATION_TYPE": "U",
        "NORAD_CAT_ID": 53979,
        "ELEMENT_SET_NO": 999,
        "REV_AT_EPOCH": 20574,
        "BSTAR": 0.000016128,
        "MEAN_MOTION_DOT": -3.1e-7,
        "MEAN_MOTION_DDOT": 0
      },
      "source": "celestrak",
      "source_url": "https://celestrak.org/NORAD/elements/gp.php?NAME=STARLINK&FORMAT=JSON",
      "catalog_fingerprint": "b8e2cd48"
    },
    {
      "satellite_id": "P03-S07",
      "norad_id": 49413,
      "satellite_name": "STARLINK-3157",
      "cospar_id": "2021-104F",
      "shell_id": "starlink-real-53.2deg-545km",
      "plane_id": 2,
      "slot_id": 6,
      "epoch": "2026-06-26T01:53:35.683008",
      "inclination": 53.1617,
      "raan": 92.4074,
      "eccentricity": 0.0001474,
      "argument_of_perigee": 92.82740000000001,
      "mean_anomaly": 267.2886,
      "mean_motion": 15.08828459,
      "bstar": 0.000010236,
      "status": "active",
      "raw_omm": {
        "OBJECT_NAME": "STARLINK-3157",
        "OBJECT_ID": "2021-104F",
        "EPOCH": "2026-06-26T01:53:35.683008",
        "MEAN_MOTION": 15.08828459,
        "ECCENTRICITY": 0.0001474,
        "INCLINATION": 53.1617,
        "RA_OF_ASC_NODE": 92.4074,
        "ARG_OF_PERICENTER": 92.8274,
        "MEAN_ANOMALY": 267.2886,
        "EPHEMERIS_TYPE": 0,
        "CLASSIFICATION_TYPE": "U",
        "NORAD_CAT_ID": 49413,
        "ELEMENT_SET_NO": 999,
        "REV_AT_EPOCH": 25513,
        "BSTAR": 0.000010236,
        "MEAN_MOTION_DOT": -0.00000125,
        "MEAN_MOTION_DDOT": 0
      },
      "source": "celestrak",
      "source_url": "https://celestrak.org/NORAD/elements/gp.php?NAME=STARLINK&FORMAT=JSON",
      "catalog_fingerprint": "b8e2cd48"
    },
    {
      "satellite_id": "P03-S08",
      "norad_id": 49432,
      "satellite_name": "STARLINK-3158",
      "cospar_id": "2021-104AA",
      "shell_id": "starlink-real-53.2deg-545km",
      "plane_id": 2,
      "slot_id": 7,
      "epoch": "2026-06-26T00:02:18.415392",
      "inclination": 53.1623,
      "raan": 92.75049999999999,
      "eccentricity": 0.0001705,
      "argument_of_perigee": 116.09559999999999,
      "mean_anomaly": 244.02109999999993,
      "mean_motion": 15.088306,
      "bstar": 0.000015343,
      "status": "active",
      "raw_omm": {
        "OBJECT_NAME": "STARLINK-3158",
        "OBJECT_ID": "2021-104AA",
        "EPOCH": "2026-06-26T00:02:18.415392",
        "MEAN_MOTION": 15.088306,
        "ECCENTRICITY": 0.0001705,
        "INCLINATION": 53.1623,
        "RA_OF_ASC_NODE": 92.7505,
        "ARG_OF_PERICENTER": 116.0956,
        "MEAN_ANOMALY": 244.0211,
        "EPHEMERIS_TYPE": 0,
        "CLASSIFICATION_TYPE": "U",
        "NORAD_CAT_ID": 49432,
        "ELEMENT_SET_NO": 999,
        "REV_AT_EPOCH": 25512,
        "BSTAR": 0.000015343,
        "MEAN_MOTION_DOT": -4.4e-7,
        "MEAN_MOTION_DDOT": 0
      },
      "source": "celestrak",
      "source_url": "https://celestrak.org/NORAD/elements/gp.php?NAME=STARLINK&FORMAT=JSON",
      "catalog_fingerprint": "b8e2cd48"
    }
  ]
}