STARLINK-3162           
1 49411U 21104D   26177.08160490  .00000360  00000+0  40691-4 0  9990
2 49411  53.1605  92.3833 0001322  94.0168 266.0974 15.08829743255132
STARLINK-3157           
1 49413U 21104F   26177.07888523 -.00000125  00000+0  10236-4 0  9997
2 49413  53.1617  92.4074 0001473  92.8274 267.2886 15.08828459255134
STARLINK-3158           
1 49432U 21104AA  26177.00160203 -.00000044  00000+0  15343-4 0  9993
2 49432  53.1623  92.7505 0001704 116.0956 244.0211 15.08830600255122
STARLINK-5148           
1 53978U 22125Q   26176.99327712  .00000692  00000+0  61568-4 0  9992
2 53978  53.1612  92.6979 0001375  94.4881 265.6268 15.08823484205740
STARLINK-5123           
1 53979U 22125R   26177.00063853 -.00000031  00000+0  16128-4 0  9999
2 53979  53.1614  92.7438 0001472 101.8531 258.2625 15.08839068205747
STARLINK-5133           
1 53980U 22125S   26176.97484123  .00000493  00000+0  49053-4 0  9997
2 53980  53.1596  92.5866 0001253  84.5406 275.5728 15.08839060205744
